{"fetched_at":"2026-07-11T06:35:06.838Z","source":"https://celestrak.org/NORAD/elements/gp.php?GROUP=oneweb&FORMAT=JSON","constellation":"oneweb","records":[{"OBJECT_NAME":"ONEWEB-0461","OBJECT_ID":"2022-012AD","EPOCH":"2026-07-10T12:59:45.047040","CLASSIFICATION_TYPE":"U","MEAN_MOTION":13.17649956,"ECCENTRICITY":0.000197,"INCLINATION":87.9149,"RA_OF_ASC_NODE":1.2126,"ARG_OF_PERICENTER":89.4703,"MEAN_ANOMALY":270.6654,"EPHEMERIS_TYPE":0,"NORAD_CAT_ID":51649,"ELEMENT_SET_NO":999,"REV_AT_EPOCH":21696,"BSTAR":0.000049547,"MEAN_MOTION_DOT":3.2e-7,"MEAN_MOTION_DDOT":0},{"OBJECT_NAME":"ONEWEB-0463","OBJECT_ID":"2022-012AE","EPOCH":"2026-07-10T10:43:40.456992","CLASSIFICATION_TYPE":"U","MEAN_MOTION":13.17650042,"ECCENTRICITY":0.00020105,"INCLINATION":87.9137,"RA_OF_ASC_NODE":1.2515,"ARG_OF_PERICENTER":89.8995,"MEAN_ANOMALY":270.2367,"EPHEMERIS_TYPE":0,"NORAD_CAT_ID":51650,"ELEMENT_SET_NO":999,"REV_AT_EPOCH":21673,"BSTAR":0.00002221656,"MEAN_MOTION_DOT":2.2e-7,"MEAN_MOTION_DDOT":0},{"OBJECT_NAME":"ONEWEB-0464","OBJECT_ID":"2022-012AF","EPOCH":"2026-07-10T00:24:56.062656","CLASSIFICATION_TYPE":"U","MEAN_MOTION":13.10370972,"ECCENTRICITY":0.00015519,"INCLINATION":87.8807,"RA_OF_ASC_NODE":31.7309,"ARG_OF_PERICENTER":87.2705,"MEAN_ANOMALY":272.86,"EPHEMERIS_TYPE":0,"NORAD_CAT_ID":51651,"ELEMENT_SET_NO":999,"REV_AT_EPOCH":21231,"BSTAR":0.0014546517,"MEAN_MOTION_DOT":0.0000052,"MEAN_MOTION_DDOT":0},{"OBJECT_NAME":"ONEWEB-0468","OBJECT_ID":"2022-012AG","EPOCH":"2026-07-10T20:41:44.325312","CLASSIFICATION_TYPE":"U","MEAN_MOTION":13.10369443,"ECCENTRICITY":0.0001661,"INCLINATION":87.8812,"RA_OF_ASC_NODE":31.5558,"ARG_OF_PERICENTER":92.5724,"MEAN_ANOMALY":267.5593,"EPHEMERIS_TYPE":0,"NORAD_CAT_ID":51652,"ELEMENT_SET_NO":999,"REV_AT_EPOCH":21240,"BSTAR":0.0013285,"MEAN_MOTION_DOT":0.00000476,"MEAN_MOTION_DDOT":0},{"OBJECT_NAME":"ONEWEB-0473","OBJECT_ID":"2022-012AH","EPOCH":"2026-07-10T00:12:44.166528","CLASSIFICATION_TYPE":"U","MEAN_MOTION":13.10373507,"ECCENTRICITY":0.00018637,"INCLINATION":87.882,"RA_OF_ASC_NODE":31.7285,"ARG_OF_PERICENTER":88.9968,"MEAN_ANOMALY":271.1373,"EPHEMERIS_TYPE":0,"NORAD_CAT_ID":51653,"ELEMENT_SET_NO":999,"REV_AT_EPOCH":21229,"BSTAR":0.0020488629,"MEAN_MOTION_DOT":0.00000728,"MEAN_MOTION_DDOT":0},{"OBJECT_NAME":"ONEWEB-0474","OBJECT_ID":"2022-012AJ","EPOCH":"2026-07-10T00:00:30.141504","CLASSIFICATION_TYPE":"U","MEAN_MOTION":13.10376082,"ECCENTRICITY":0.00015424,"INCLINATION":87.8824,"RA_OF_ASC_NODE":31.7165,"ARG_OF_PERICENTER":90.5379,"MEAN_ANOMALY":269.5925,"EPHEMERIS_TYPE":0,"NORAD_CAT_ID":51654,"ELEMENT_SET_NO":999,"REV_AT_EPOCH":21228,"BSTAR":0.001559335,"MEAN_MOTION_DOT":0.00000557,"MEAN_MOTION_DDOT":0},{"OBJECT_NAME":"ONEWEB-0475","OBJECT_ID":"2022-012AK","EPOCH":"2026-07-09T16:47:11.980608","CLASSIFICATION_TYPE":"U","MEAN_MOTION":13.17648335,"ECCENTRICITY":0.00012832,"INCLINATION":87.9137,"RA_OF_ASC_NODE":1.3937,"ARG_OF_PERICENTER":105.4247,"MEAN_ANOMALY":254.7027,"EPHEMERIS_TYPE":0,"NORAD_CAT_ID":51655,"ELEMENT_SET_NO":999,"REV_AT_EPOCH":21665,"BSTAR":0.00015811389,"MEAN_MOTION_DOT":7.4e-7,"MEAN_MOTION_DDOT":0},{"OBJECT_NAME":"ONEWEB-0490","OBJECT_ID":"2022-138A","EPOCH":"2026-07-09T06:33:14.889600","CLASSIFICATION_TYPE":"U","MEAN_MOTION":13.19726523,"ECCENTRICITY":0.00019967,"INCLINATION":87.9194,"RA_OF_ASC_NODE":300.5692,"ARG_OF_PERICENTER":106.3914,"MEAN_ANOMALY":253.7438,"EPHEMERIS_TYPE":0,"NORAD_CAT_ID":54113,"ELEMENT_SET_NO":999,"REV_AT_EPOCH":17974,"BSTAR":-0.000039888616,"MEAN_MOTION_DOT":-3e-8,"MEAN_MOTION_DDOT":0},{"OBJECT_NAME":"ONEWEB-0492","OBJECT_ID":"2022-138B","EPOCH":"2026-07-10T06:48:54.551808","CLASSIFICATION_TYPE":"U","MEAN_MOTION":13.19727906,"ECCENTRICITY":0.00022098,"INCLINATION":87.9188,"RA_OF_ASC_NODE":300.3686,"ARG_OF_PERICENTER":105.3172,"MEAN_ANOMALY":254.8205,"EPHEMERIS_TYPE":0,"NORAD_CAT_ID":54114,"ELEMENT_SET_NO":999,"REV_AT_EPOCH":17988,"BSTAR":0.000007407655,"MEAN_MOTION_DOT":1.6e-7,"MEAN_MOTION_DDOT":0},{"OBJECT_NAME":"ONEWEB-0495","OBJECT_ID":"2022-138C","EPOCH":"2026-07-10T06:17:05.300160","CLASSIFICATION_TYPE":"U","MEAN_MOTION":13.19726102,"ECCENTRICITY":0.00020602,"INCLINATION":87.9182,"RA_OF_ASC_NODE":300.3756,"ARG_OF_PERICENTER":120.4601,"MEAN_ANOMALY":239.6736,"EPHEMERIS_TYPE":0,"NORAD_CAT_ID":54115,"ELEMENT_SET_NO":999,"REV_AT_EPOCH":17986,"BSTAR":0.00013686891,"MEAN_MOTION_DOT":6.8e-7,"MEAN_MOTION_DDOT":0},{"OBJECT_NAME":"ONEWEB-0497","OBJECT_ID":"2022-138D","EPOCH":"2026-07-10T06:35:17.153376","CLASSIFICATION_TYPE":"U","MEAN_MOTION":13.19725779,"ECCENTRICITY":0.00020401,"INCLINATION":87.9198,"RA_OF_ASC_NODE":300.3657,"ARG_OF_PERICENTER":103.8957,"MEAN_ANOMALY":256.2403,"EPHEMERIS_TYPE":0,"NORAD_CAT_ID":54116,"ELEMENT_SET_NO":999,"REV_AT_EPOCH":17985,"BSTAR":-0.000062414992,"MEAN_MOTION_DOT":-1.2e-7,"MEAN_MOTION_DDOT":0},{"OBJECT_NAME":"ONEWEB-0499","OBJECT_ID":"2022-138E","EPOCH":"2026-07-10T06:11:23.129376","CLASSIFICATION_TYPE":"U","MEAN_MOTION":13.19723956,"ECCENTRICITY":0.00018741,"INCLINATION":87.9183,"RA_OF_ASC_NODE":300.3773,"ARG_OF_PERICENTER":107.9636,"MEAN_ANOMALY":252.1701,"EPHEMERIS_TYPE":0,"NORAD_CAT_ID":54117,"ELEMENT_SET_NO":999,"REV_AT_EPOCH":17986,"BSTAR":0.00014124131,"MEAN_MOTION_DOT":6.9e-7,"MEAN_MOTION_DDOT":0},{"OBJECT_NAME":"ONEWEB-0500","OBJECT_ID":"2022-138F","EPOCH":"2026-07-10T06:14:49.246944","CLASSIFICATION_TYPE":"U","MEAN_MOTION":13.19725598,"ECCENTRICITY":0.00020572,"INCLINATION":87.9189,"RA_OF_ASC_NODE":300.3729,"ARG_OF_PERICENTER":99.9365,"MEAN_ANOMALY":260.2,"EPHEMERIS_TYPE":0,"NORAD_CAT_ID":54118,"ELEMENT_SET_NO":999,"REV_AT_EPOCH":17987,"BSTAR":0.00018209437,"MEAN_MOTION_DOT":8.6e-7,"MEAN_MOTION_DDOT":0},{"OBJECT_NAME":"ONEWEB-0501","OBJECT_ID":"2022-138G","EPOCH":"2026-07-09T07:18:45.061344","CLASSIFICATION_TYPE":"U","MEAN_MOTION":13.19725024,"ECCENTRICITY":0.00019849,"INCLINATION":87.9198,"RA_OF_ASC_NODE":300.561,"ARG_OF_PERICENTER":111.0393,"MEAN_ANOMALY":249.0952,"EPHEMERIS_TYPE":0,"NORAD_CAT_ID":54119,"ELEMENT_SET_NO":999,"REV_AT_EPOCH":17972,"BSTAR":0.0011274342,"MEAN_MOTION_DOT":0.00000464,"MEAN_MOTION_DDOT":0},{"OBJECT_NAME":"ONEWEB-0502","OBJECT_ID":"2022-138H","EPOCH":"2026-07-09T06:58:16.221792","CLASSIFICATION_TYPE":"U","MEAN_MOTION":13.19725881,"ECCENTRICITY":0.00018121,"INCLINATION":87.9191,"RA_OF_ASC_NODE":300.5545,"ARG_OF_PERICENTER":108.9615,"MEAN_ANOMALY":251.1715,"EPHEMERIS_TYPE":0,"NORAD_CAT_ID":54120,"ELEMENT_SET_NO":999,"REV_AT_EPOCH":17974,"BSTAR":0.000049928308,"MEAN_MOTION_DOT":3.3e-7,"MEAN_MOTION_DDOT":0},{"OBJECT_NAME":"ONEWEB-0503","OBJECT_ID":"2022-138J","EPOCH":"2026-07-10T06:21:38.217888","CLASSIFICATION_TYPE":"U","MEAN_MOTION":13.19725821,"ECCENTRICITY":0.00017514,"INCLINATION":87.9196,"RA_OF_ASC_NODE":300.3669,"ARG_OF_PERICENTER":96.7501,"MEAN_ANOMALY":263.3831,"EPHEMERIS_TYPE":0,"NORAD_CAT_ID":54121,"ELEMENT_SET_NO":999,"REV_AT_EPOCH":17986,"BSTAR":0.00014459466,"MEAN_MOTION_DOT":7.1e-7,"MEAN_MOTION_DDOT":0}]}
