ONEWEB-0461             
1 51649U 22012AD  26191.54149360  .00000032  00000+0  49547-4 0  9990
2 51649  87.9149   1.2126 0001970  89.4703 270.6654 13.17649956216960
ONEWEB-0463             
1 51650U 22012AE  26191.44699603  .00000022  00000+0  22217-4 0  9995
2 51650  87.9137   1.2515 0002010  89.8995 270.2367 13.17650042216734
ONEWEB-0464             
1 51651U 22012AF  26191.01731554  .00000520  00000+0  14547-2 0  9999
2 51651  87.8807  31.7309 0001551  87.2705 272.8600 13.10370972212319
ONEWEB-0468             
1 51652U 22012AG  26191.86231858  .00000476  00000+0  13285-2 0  9993
2 51652  87.8812  31.5558 0001661  92.5724 267.5593 13.10369443212405
ONEWEB-0473             
1 51653U 22012AH  26191.00884452  .00000728  00000+0  20489-2 0  9998
2 51653  87.8820  31.7285 0001863  88.9968 271.1373 13.10373507212297
ONEWEB-0474             
1 51654U 22012AJ  26191.00034886  .00000557  00000+0  15593-2 0  9997
2 51654  87.8824  31.7165 0001542  90.5379 269.5925 13.10376082212282
ONEWEB-0475             
1 51655U 22012AK  26190.69944422  .00000074  00000+0  15811-3 0  9996
2 51655  87.9137   1.3937 0001283 105.4247 254.7027 13.17648335216657
ONEWEB-0490             
1 54113U 22138A   26190.27308900 -.00000003  00000+0 -39889-4 0  9992
2 54113  87.9194 300.5692 0001996 106.3914 253.7438 13.19726523179747
ONEWEB-0492             
1 54114U 22138B   26191.28396472  .00000016  00000+0  74077-5 0  9997
2 54114  87.9188 300.3686 0002209 105.3172 254.8205 13.19727906179880
ONEWEB-0495             
1 54115U 22138C   26191.26186690  .00000068  00000+0  13687-3 0  9990
2 54115  87.9182 300.3756 0002060 120.4601 239.6736 13.19726102179868
ONEWEB-0497             
1 54116U 22138D   26191.27450409 -.00000012  00000+0 -62415-4 0  9999
2 54116  87.9198 300.3657 0002040 103.8957 256.2403 13.19725779179857
ONEWEB-0499             
1 54117U 22138E   26191.25790659  .00000069  00000+0  14124-3 0  9995
2 54117  87.9183 300.3773 0001874 107.9636 252.1701 13.19723956179866
ONEWEB-0500             
1 54118U 22138F   26191.26029221  .00000086  00000+0  18209-3 0  9994
2 54118  87.9189 300.3729 0002057  99.9365 260.2000 13.19725598179874
ONEWEB-0501             
1 54119U 22138G   26190.30468821  .00000464  00000+0  11274-2 0  9996
2 54119  87.9198 300.5610 0001984 111.0393 249.0952 13.19725024179720
ONEWEB-0502             
1 54120U 22138H   26190.29046553  .00000033  00000+0  49928-4 0  9991
2 54120  87.9191 300.5545 0001812 108.9615 251.1715 13.19725881179748
ONEWEB-0503             
1 54121U 22138J   26191.26502567  .00000071  00000+0  14459-3 0  9994
2 54121  87.9196 300.3669 0001751  96.7501 263.3831 13.19725821179860
